ONEWEB-0249             
1 48967U 21060A   24346.93420037  .00000016  00000+0  88367-5 0  9993
2 48967  87.9081 338.8046 0001762  90.5349 269.5984 13.16594905166949
ONEWEB-0250             
1 48968U 21060B   24346.94031713  .00000117  00000+0  23840-3 0  9999
2 48968  87.9079 338.3614 0000978  97.1818 262.9429 13.25635555167045
ONEWEB-0252             
1 48970U 21060D   24346.73787809  .00000114  00000+0  26528-3 0  9996
2 48970  87.9080 338.8365 0002073  81.0841 279.0524 13.16595255166961
ONEWEB-0253             
1 48971U 21060E   24346.95477421  .00000070  00000+0  15054-3 0  9990
2 48971  87.9078 338.8019 0001608  81.9288 278.2025 13.16592459166928
ONEWEB-0254             
1 48972U 21060F   24346.73629031  .00000049  00000+0  95246-4 0  9991
2 48972  87.9079 338.8261 0001248  82.4269 277.7004 13.16594295166891
ONEWEB-0255             
1 48973U 21060G   24346.92628209  .00000075  00000+0  16221-3 0  9993
2 48973  87.9083 338.8224 0001448  85.5180 274.6117 13.16594911166991
ONEWEB-0256             
1 48974U 21060H   24346.72439266 -.00000276  00000+0 -75593-3 0  9997
2 48974  87.9080 338.8712 0001905  85.9868 274.1481 13.16593687166938
ONEWEB-0257             
1 48975U 21060J   24346.68087788  .00000137  00000+0  32429-3 0  9996
2 48975  87.9083 338.8458 0001759  81.5651 278.5680 13.16594904166884
